[{"OBJECT_NAME":"STARLINK-3290","OBJECT_ID":"2022-001AB","EPOCH":"2026-03-09T13:05:25.242720","MEAN_MOTION":15.08839033,"ECCENTRICITY":0.00012841,"INCLINATION":53.2186,"RA_OF_ASC_NODE":169.6628,"ARG_OF_PERICENTER":77.7171,"MEAN_ANOMALY":282.3965,"EPHEMERIS_TYPE":0,"CLASSIFICATION_TYPE":"U","NORAD_CAT_ID":50828,"ELEMENT_SET_NO":999,"REV_AT_EPOCH":23023,"BSTAR":-4.186895e-6,"MEAN_MOTION_DOT":-3.55e-6,"MEAN_MOTION_DDOT":0},{"OBJECT_NAME":"OBJECT T","OBJECT_ID":"2018-099T","EPOCH":"2026-03-09T14:32:29.418720","MEAN_MOTION":15.09436097,"ECCENTRICITY":0.0004517,"INCLINATION":97.4347,"RA_OF_ASC_NODE":115.9313,"ARG_OF_PERICENTER":320.9739,"MEAN_ANOMALY":39.1164,"EPHEMERIS_TYPE":0,"CLASSIFICATION_TYPE":"U","NORAD_CAT_ID":43775,"ELEMENT_SET_NO":999,"REV_AT_EPOCH":39729,"BSTAR":0.00032877,"MEAN_MOTION_DOT":5.2e-5,"MEAN_MOTION_DDOT":0}]
